{
    "week": 293,
    "satellites": [
        {
            "Name": "GSAT0218 (GALILEO 22)",
            "Line1": "1 43058U 17079D   24327.24338325 -.00000026  00000+0  00000+0 0  9999",
            "Line2": "2 43058  55.2725 237.2444 0003460 295.0645  64.9434  1.70473819 43263",
            "SatelliteNumber": "43058",
            "Classification": "U",
            "LaunchYear": "17",
            "LaunchNumber": "079",
            "PieceOfLaunch": "D",
            "EpochYear": "24",
            "EpochDay": 327.24338325,
            "FirstDerivativeMeanMotion": -2.6e-07,
            "SecondDerivativeMeanMotion": "00000+0",
            "BSTAR": "00000+0",
            "SetNumber": "999",
            "Inclination": 55.2725,
            "RAAN": 237.2444,
            "Eccentricity": 0.000346,
            "ArgumentOfPerigee": 295.0645,
            "MeanAnomaly": 64.9434,
            "MeanMotion": 1.70473819,
            "RevolutionNumber": "4326"
        },
        {
            "Name": "GSAT0221 (GALILEO 25)",
            "Line1": "1 43564U 18060A   24327.73104466 -.00000092  00000+0  00000+0 0  9996",
            "Line2": "2 43564  57.2958 357.1985 0006107 273.1554  86.8240  1.70476039 39433",
            "SatelliteNumber": "43564",
            "Classification": "U",
            "LaunchYear": "18",
            "LaunchNumber": "060",
            "PieceOfLaunch": "A",
            "EpochYear": "24",
            "EpochDay": 327.73104466,
            "FirstDerivativeMeanMotion": -9.2e-07,
            "SecondDerivativeMeanMotion": "00000+0",
            "BSTAR": "00000+0",
            "SetNumber": "999",
            "Inclination": 57.2958,
            "RAAN": 357.1985,
            "Eccentricity": 0.0006107,
            "ArgumentOfPerigee": 273.1554,
            "MeanAnomaly": 86.824,
            "MeanMotion": 1.70476039,
            "RevolutionNumber": "3943"
        },
        {
            "Name": "GSAT0222 (GALILEO 26)",
            "Line1": "1 43565U 18060B   24327.36320128 -.00000092  00000+0  00000+0 0  9991",
            "Line2": "2 43565  57.2998 357.2106 0005742 251.6443 108.3422  1.70475784 39467",
            "SatelliteNumber": "43565",
            "Classification": "U",
            "LaunchYear": "18",
            "LaunchNumber": "060",
            "PieceOfLaunch": "B",
            "EpochYear": "24",
            "EpochDay": 327.36320128,
            "FirstDerivativeMeanMotion": -9.2e-07,
            "SecondDerivativeMeanMotion": "00000+0",
            "BSTAR": "00000+0",
            "SetNumber": "999",
            "Inclination": 57.2998,
            "RAAN": 357.2106,
            "Eccentricity": 0.0005742,
            "ArgumentOfPerigee": 251.6443,
            "MeanAnomaly": 108.3422,
            "MeanMotion": 1.70475784,
            "RevolutionNumber": "3946"
        },
        {
            "Name": "GSAT0219 (GALILEO 23)",
            "Line1": "1 43566U 18060C   24326.99826852 -.00000093  00000+0  00000+0 0  9996",
            "Line2": "2 43566  57.2986 357.2223 0005254 277.4867  82.5025  1.70475997 39434",
            "SatelliteNumber": "43566",
            "Classification": "U",
            "LaunchYear": "18",
            "LaunchNumber": "060",
            "PieceOfLaunch": "C",
            "EpochYear": "24",
            "EpochDay": 326.99826852,
            "FirstDerivativeMeanMotion": -9.3e-07,
            "SecondDerivativeMeanMotion": "00000+0",
            "BSTAR": "00000+0",
            "SetNumber": "999",
            "Inclination": 57.2986,
            "RAAN": 357.2223,
            "Eccentricity": 0.0005254,
            "ArgumentOfPerigee": 277.4867,
            "MeanAnomaly": 82.5025,
            "MeanMotion": 1.70475997,
            "RevolutionNumber": "3943"
        },
        {
            "Name": "GSAT0220 (GALILEO 24)",
            "Line1": "1 43567U 18060D   24325.45925752 -.00000095  00000+0  00000+0 0  9998",
            "Line2": "2 43567  57.2983 357.2636 0005618 273.9694  86.0161  1.70475896 39396",
            "SatelliteNumber": "43567",
            "Classification": "U",
            "LaunchYear": "18",
            "LaunchNumber": "060",
            "PieceOfLaunch": "D",
            "EpochYear": "24",
            "EpochDay": 325.45925752,
            "FirstDerivativeMeanMotion": -9.5e-07,
            "SecondDerivativeMeanMotion": "00000+0",
            "BSTAR": "00000+0",
            "SetNumber": "999",
            "Inclination": 57.2983,
            "RAAN": 357.2636,
            "Eccentricity": 0.0005618,
            "ArgumentOfPerigee": 273.9694,
            "MeanAnomaly": 86.0161,
            "MeanMotion": 1.70475896,
            "RevolutionNumber": "3939"
        },
        {
            "Name": "GSAT0223 (GALILEO 27)",
            "Line1": "1 49809U 21116A   24325.24768271 -.00000095  00000+0  00000+0 0  9997",
            "Line2": "2 49809  57.2884 357.1626 0004373 236.5383  84.1354  1.70476055 18394",
            "SatelliteNumber": "49809",
            "Classification": "U",
            "LaunchYear": "21",
            "LaunchNumber": "116",
            "PieceOfLaunch": "A",
            "EpochYear": "24",
            "EpochDay": 325.24768271,
            "FirstDerivativeMeanMotion": -9.5e-07,
            "SecondDerivativeMeanMotion": "00000+0",
            "BSTAR": "00000+0",
            "SetNumber": "999",
            "Inclination": 57.2884,
            "RAAN": 357.1626,
            "Eccentricity": 0.0004373,
            "ArgumentOfPerigee": 236.5383,
            "MeanAnomaly": 84.1354,
            "MeanMotion": 1.70476055,
            "RevolutionNumber": "1839"
        },
        {
            "Name": "GSAT0224 (GALILEO 28)",
            "Line1": "1 49810U 21116B   24326.29922704 -.00000094  00000+0  00000+0 0  9997",
            "Line2": "2 49810  57.2870 357.1326 0004763 247.4556 111.0877  1.70476145 18439",
            "SatelliteNumber": "49810",
            "Classification": "U",
            "LaunchYear": "21",
            "LaunchNumber": "116",
            "PieceOfLaunch": "B",
            "EpochYear": "24",
            "EpochDay": 326.29922704,
            "FirstDerivativeMeanMotion": -9.4e-07,
            "SecondDerivativeMeanMotion": "00000+0",
            "BSTAR": "00000+0",
            "SetNumber": "999",
            "Inclination": 57.287,
            "RAAN": 357.1326,
            "Eccentricity": 0.0004763,
            "ArgumentOfPerigee": 247.4556,
            "MeanAnomaly": 111.0877,
            "MeanMotion": 1.70476145,
            "RevolutionNumber": "1843"
        },
        {
            "Name": "GSAT0225 (GALILEO 29)",
            "Line1": "1 59598U 24079A   24324.55307038  .00000035  00000+0  00000+0 0  9990",
            "Line2": "2 59598  54.7827 117.1589 0002524 161.2148 196.6844  1.70474741  3511",
            "SatelliteNumber": "59598",
            "Classification": "U",
            "LaunchYear": "24",
            "LaunchNumber": "079",
            "PieceOfLaunch": "A",
            "EpochYear": "24",
            "EpochDay": 324.55307038,
            "FirstDerivativeMeanMotion": 3.5e-07,
            "SecondDerivativeMeanMotion": "00000+0",
            "BSTAR": "00000+0",
            "SetNumber": "999",
            "Inclination": 54.7827,
            "RAAN": 117.1589,
            "Eccentricity": 0.0002524,
            "ArgumentOfPerigee": 161.2148,
            "MeanAnomaly": 196.6844,
            "MeanMotion": 1.70474741,
            "RevolutionNumber": "351"
        },
        {
            "Name": "GSAT0227 (GALILEO 30)",
            "Line1": "1 59600U 24079C   24327.08611581  .00000047  00000+0  00000+0 0  9999",
            "Line2": "2 59600  54.7789 117.0894 0003681 118.1090 241.9092  1.70474744  3615",
            "SatelliteNumber": "59600",
            "Classification": "U",
            "LaunchYear": "24",
            "LaunchNumber": "079",
            "PieceOfLaunch": "C",
            "EpochYear": "24",
            "EpochDay": 327.08611581,
            "FirstDerivativeMeanMotion": 4.7e-07,
            "SecondDerivativeMeanMotion": "00000+0",
            "BSTAR": "00000+0",
            "SetNumber": "999",
            "Inclination": 54.7789,
            "RAAN": 117.0894,
            "Eccentricity": 0.0003681,
            "ArgumentOfPerigee": 118.109,
            "MeanAnomaly": 241.9092,
            "MeanMotion": 1.70474744,
            "RevolutionNumber": "361"
        },
        {
            "Name": "GSAT0232 (GALILEO 32)",
            "Line1": "1 61182U 24167A   24321.21686440 -.00000004  00000+0  00000+0 0  9994",
            "Line2": "2 61182  55.3884 237.1378 0015743 276.0571  83.7985  1.73178105  1028",
            "SatelliteNumber": "61182",
            "Classification": "U",
            "LaunchYear": "24",
            "LaunchNumber": "167",
            "PieceOfLaunch": "A",
            "EpochYear": "24",
            "EpochDay": 321.2168644,
            "FirstDerivativeMeanMotion": -4e-08,
            "SecondDerivativeMeanMotion": "00000+0",
            "BSTAR": "00000+0",
            "SetNumber": "999",
            "Inclination": 55.3884,
            "RAAN": 237.1378,
            "Eccentricity": 0.0015743,
            "ArgumentOfPerigee": 276.0571,
            "MeanAnomaly": 83.7985,
            "MeanMotion": 1.73178105,
            "RevolutionNumber": "102"
        }
    ]
}